CTC2_L_00390016-03
1 73849U 26004BE  26070.40847222  .00000000  00000+0  00000-0 0  9996
2 73849  85.0000 180.0000 0000000   0.0000   0.0000 12.90384021    16
CTC2_L_00390016-04
1 73850U 23788ZN  26070.40847222  .00000000  00000+0  00000-0 0  9994
2 73850  85.0000 180.0000 0000000   0.0000  90.0000 12.90384021    17
CTC2_L_00390017-01
1 73851U 22060VG  26070.40847222  .00000000  00000+0  00000-0 0  9997
2 73851  85.0000 192.0000 0000000   0.0000 192.0000 12.90384021    14
CTC2_L_00390017-02
1 73852U 23922TE  26070.40847222  .00000000  00000+0  00000-0 0  9996
2 73852  85.0000 192.0000 0000000   0.0000 282.0000 12.90384021    15
CTC2_L_00390017-03
1 73853U 25536AT  26070.40847222  .00000000  00000+0  00000-0 0  9990
2 73853  85.0000 192.0000 0000000   0.0000  12.0000 12.90384021    17
CTC2_L_00390017-04
1 73854U 22521CO  26070.40847222  .00000000  00000+0  00000-0 0  9992
2 73854  85.0000 192.0000 0000000   0.0000 102.0000 12.90384021    18
CTC2_L_00390018-01
1 73855U 24181IE  26070.40847222  .00000000  00000+0  00000-0 0  9997
2 73855  85.0000 204.0000 0000000   0.0000 204.0000 12.90384021    16
CTC2_L_00390018-02
1 73856U 23371RD  26070.40847222  .00000000  00000+0  00000-0 0  9998
2 73856  85.0000 204.0000 0000000   0.0000 294.0000 12.90384021    16
CTC2_L_00390018-03
1 73857U 24078BI  26070.40847222  .00000000  00000+0  00000-0 0  9994
2 73857  85.0000 204.0000 0000000   0.0000  24.0000 12.90384021    18
CTC2_L_00390018-04
1 73858U 23358ER  26070.40847222  .00000000  00000+0  00000-0 0  9995
2 73858  85.0000 204.0000 0000000   0.0000 114.0000 12.90384021    19
CTC2_L_00390019-01
1 73859U 26518XI  26070.40847222  .00000000  00000+0  00000-0 0  9997
2 73859  85.0000 216.0000 0000000   0.0000 216.0000 12.90384021    16
CTC2_L_00390019-02
1 73860U 25885GK  26070.40847222  .00000000  00000+0  00000-0 0  9995
2 73860  85.0000 216.0000 0000000   0.0000 306.0000 12.90384021    18
CTC2_L_00390019-03
1 73861U 24930NO  26070.40847222  .00000000  00000+0  00000-0 0  9996
2 73861  85.0000 216.0000 0000000   0.0000  36.0000 12.90384021    19
CTC2_L_00390019-04
1 73862U 23548ZX  26070.40847222  .00000000  00000+0  00000-0 0  9991
2 73862  85.0000 216.0000 0000000   0.0000 126.0000 12.90384021    10
CTC2_L_00390020-01
1 73863U 23171L   26070.40847222  .00000000  00000+0  00000-0 0  9994
2 73863  85.0000 228.0000 0000000   0.0000 228.0000 12.90384021    17
CTC2_L_00390020-02
1 73864U 22357YX  26070.40847222  .00000000  00000+0  00000-0 0  9990
2 73864  85.0000 228.0000 0000000   0.0000 318.0000 12.90384021    18
CTC2_L_00390020-03
1 73865U 24446MF  26070.40847222  .00000000  00000+0  00000-0 0  9992
2 73865  85.0000 228.0000 0000000   0.0000  48.0000 12.90384021    19
CTC2_L_00390020-04
1 73866U 23128FR  26070.40847222  .00000000  00000+0  00000-0 0  9999
2 73866  85.0000 228.0000 0000000   0.0000 138.0000 12.90384021    10
CTC2_L_00390021-01
1 73867U 23807HC  26070.40847222  .00000000  00000+0  00000-0 0  9994
2 73867  85.0000 240.0000 0000000   0.0000 240.0000 12.90384021    19
CTC2_L_00390021-02
1 73868U 24770TI  26070.40847222  .00000000  00000+0  00000-0 0  9995
2 73868  85.0000 240.0000 0000000   0.0000 330.0000 12.90384021    10
CTC2_L_00390021-03
1 73869U 22001VO  26070.40847222  .00000000  00000+0  00000-0 0  9991
2 73869  85.0000 240.0000 0000000   0.0000  60.0000 12.90384021    11
CTC2_L_00390021-04
1 73870U 25142AM  26070.40847222  .00000000  00000+0  00000-0 0  9992
2 73870  85.0000 240.0000 0000000   0.0000 150.0000 12.90384021    13
CTC2_L_00390022-01
1 73871U 26634SZ  26070.40847222  .00000000  00000+0  00000-0 0  9990
2 73871  85.0000 252.0000 0000000   0.0000 252.0000 12.90384021    10
CTC2_L_00390022-02
1 73872U 26513WF  26070.40847222  .00000000  00000+0  00000-0 0  9997
2 73872  85.0000 252.0000 0000000   0.0000 342.0000 12.90384021    11
CTC2_L_00390022-03
1 73873U 22904EH  26070.40847222  .00000000  00000+0  00000-0 0  9998
2 73873  85.0000 252.0000 0000000   0.0000  72.0000 12.90384021    12
CTC2_L_00390022-04
1 73874U 22859FF  26070.40847222  .00000000  00000+0  00000-0 0  9998
2 73874  85.0000 252.0000 0000000   0.0000 162.0000 12.90384021    13
CTC2_L_00390023-01
1 73875U 24563TY  26070.40847222  .00000000  00000+0  00000-0 0  9993
2 73875  85.0000 264.0000 0000000   0.0000 264.0000 12.90384021    10
CTC2_L_00390023-02
1 73876U 23370DX  26070.40847222  .00000000  00000+0  00000-0 0  9999
2 73876  85.0000 264.0000 0000000   0.0000 354.0000 12.90384021    11
CTC2_L_00390023-03
1 73877U 22544UA  26070.40847222  .00000000  00000+0  00000-0 0  9992
2 73877  85.0000 264.0000 0000000   0.0000  84.0000 12.90384021    12
CTC2_L_00390023-04
1 73878U 26080OS  26070.40847222  .00000000  00000+0  00000-0 0  9992
2 73878  85.0000 264.0000 0000000   0.0000 174.0000 12.90384021    13
CTC2_L_00390024-01
1 73879U 26022YD  26070.40847222  .00000000  00000+0  00000-0 0  9999
2 73879  85.0000 276.0000 0000000   0.0000 276.0000 12.90384021    10
CTC2_L_00390024-02
1 73880U 23201D   26070.40847222  .00000000  00000+0  00000-0 0  9997
2 73880  85.0000 276.0000 0000000   0.0000   6.0000 12.90384021    13
CTC2_L_00390024-03
1 73881U 22552FI  26070.40847222  .00000000  00000+0  00000-0 0  9996
2 73881  85.0000 276.0000 0000000   0.0000  96.0000 12.90384021    13
CTC2_L_00390024-04
1 73882U 26437ZT  26070.40847222  .00000000  00000+0  00000-0 0  9993
2 73882  85.0000 276.0000 0000000   0.0000 186.0000 12.90384021    14
CTC2_L_00390025-01
1 73883U 25400BC  26070.40847222  .00000000  00000+0  00000-0 0  9993
2 73883  85.0000 288.0000 0000000   0.0000 288.0000 12.90384021    11
CTC2_L_00390025-02
1 73884U 26355CU  26070.40847222  .00000000  00000+0  00000-0 0  9994
2 73884  85.0000 288.0000 0000000   0.0000  18.0000 12.90384021    13
CTC2_L_00390025-03
1 73885U 24197QM  26070.40847222  .00000000  00000+0  00000-0 0  9997
2 73885  85.0000 288.0000 0000000   0.0000 108.0000 12.90384021    14
CTC2_L_00390025-04
1 73886U 22102II  26070.40847222  .00000000  00000+0  00000-0 0  9992
2 73886  85.0000 288.0000 0000000   0.0000 198.0000 12.90384021    14
CTC2_L_00390026-01
1 73887U 26024PB  26070.40847222  .00000000  00000+0  00000-0 0  9990
2 73887  85.0000 300.0000 0000000   0.0000 300.0000 12.90384021    15
CTC2_L_00390026-02
1 73888U 24954DZ  26070.40847222  .00000000  00000+0  00000-0 0  9991
2 73888  85.0000 300.0000 0000000   0.0000  30.0000 12.90384021    16
CTC2_L_00390026-03
1 73889U 24313UQ  26070.40847222  .00000000  00000+0  00000-0 0  9991
2 73889  85.0000 300.0000 0000000   0.0000 120.0000 12.90384021    17
CTC2_L_00390026-04
1 73890U 25806LX  26070.40847222  .00000000  00000+0  00000-0 0  9991
2 73890  85.0000 300.0000 0000000   0.0000 210.0000 12.90384021    19
CTC2_L_00390027-01
1 73891U 25862NY  26070.40847222  .00000000  00000+0  00000-0 0  9994
2 73891  85.0000 312.0000 0000000   0.0000 312.0000 12.90384021    16
CTC2_L_00390027-02
1 73892U 22111UE  26070.40847222  .00000000  00000+0  00000-0 0  9999
2 73892  85.0000 312.0000 0000000   0.0000  42.0000 12.90384021    17
CTC2_L_00390027-03
1 73893U 26370GF  26070.40847222  .00000000  00000+0  00000-0 0  9991
2 73893  85.0000 312.0000 0000000   0.0000 132.0000 12.90384021    18
CTC2_L_00390027-04
1 73894U 25500ZC  26070.40847222  .00000000  00000+0  00000-0 0  9996
2 73894  85.0000 312.0000 0000000   0.0000 222.0000 12.90384021    19
CTC2_L_00390028-01
1 73895U 24570IN  26070.40847222  .00000000  00000+0  00000-0 0  9993
2 73895  85.0000 324.0000 0000000   0.0000 324.0000 12.90384021    16
CTC2_L_00390028-02
1 73896U 25218UZ  26070.40847222  .00000000  00000+0  00000-0 0  9994
2 73896  85.0000 324.0000 0000000   0.0000  54.0000 12.90384021    17
CTC2_L_00390028-03
1 73897U 22363FV  26070.40847222  .00000000  00000+0  00000-0 0  9993
2 73897  85.0000 324.0000 0000000   0.0000 144.0000 12.90384021    18
CTC2_L_00390028-04
1 73898U 26741UN  26070.40847222  .00000000  00000+0  00000-0 0  9998
2 73898  85.0000 324.0000 0000000   0.0000 234.0000 12.90384021    19
CTC2_L_00390029-01
1 73899U 25055GJ  26070.40847222  .00000000  00000+0  00000-0 0  9996
2 73899  85.0000 336.0000 0000000   0.0000 336.0000 12.90384021    16
CTC2_L_00390029-02
1 73900U 24499CR  26070.40847222  .00000000  00000+0  00000-0 0  9990
2 73900  85.0000 336.0000 0000000   0.0000  66.0000 12.90384021    19
CTC2_L_00390029-03
1 73901U 25049GR  26070.40847222  .00000000  00000+0  00000-0 0  9993
2 73901  85.0000 336.0000 0000000   0.0000 156.0000 12.90384021    10
CTC2_L_00390029-04
1 73902U 25418RS  26070.40847222  .00000000  00000+0  00000-0 0  9994
2 73902  85.0000 336.0000 0000000   0.0000 246.0000 12.90384021    11
CTC2_L_00390030-01
1 73903U 25859JT  26070.40847222  .00000000  00000+0  00000-0 0  9994
2 73903  85.0000 348.0000 0000000   0.0000 348.0000 12.90384021    18
CTC2_L_00390030-02
1 73904U 24646EU  26070.40847222  .00000000  00000+0  00000-0 0  9998
2 73904  85.0000 348.0000 0000000   0.0000  78.0000 12.90384021    19
CTC2_L_00390030-03
1 73905U 23010VS  26070.40847222  .00000000  00000+0  00000-0 0  9993
2 73905  85.0000 348.0000 0000000   0.0000 168.0000 12.90384021    10
CTC2_L_00390030-04
1 73906U 25397FB  26070.40847222  .00000000  00000+0  00000-0 0  9994
2 73906  85.0000 348.0000 0000000   0.0000 258.0000 12.90384021    11
